{
"type": "FeatureCollection",
"name": "centroids_points",
"crs": { "type": "name", "properties": { "name": "urn:ogc:def:crs:OGC:1.3:CRS84" } },
"features": [
{"type":"Feature","properties":{"location_id":"garut","kabupaten":"Kabupaten Garut","provinsi":"Jawa Barat","gadm_gid_2":"IDN.9.11_1","gadm_name_2":"Garut","gadm_name_1":"JawaBarat","gadm_type_2":"Kabupaten","centroid_lat":-7.35951,"centroid_lon":107.78883,"centroid_inside_polygon":true,"representative_lat":-7.3426,"representative_lon":107.70291,"area_km2":3089.4,"status":"PASS"},"geometry":{"type":"Point","coordinates":[107.78883,-7.35951]}},
{"type":"Feature","properties":{"location_id":"cianjur","kabupaten":"Kabupaten Cianjur","provinsi":"Jawa Barat","gadm_gid_2":"IDN.9.7_1","gadm_name_2":"Cianjur","gadm_name_1":"JawaBarat","gadm_type_2":"Kabupaten","centroid_lat":-7.13358,"centroid_lon":107.15776,"centroid_inside_polygon":true,"representative_lat":-7.05365,"representative_lon":107.0692,"area_km2":3591.5,"status":"PASS"},"geometry":{"type":"Point","coordinates":[107.15776,-7.13358]}},
{"type":"Feature","properties":{"location_id":"bandung_barat","kabupaten":"Kabupaten Bandung Barat","provinsi":"Jawa Barat","gadm_gid_2":"IDN.9.1_1","gadm_name_2":"BandungBarat","gadm_name_1":"JawaBarat","gadm_type_2":"Kabupaten","centroid_lat":-6.89711,"centroid_lon":107.41495,"centroid_inside_polygon":true,"representative_lat":-6.9068,"representative_lon":107.41176,"area_km2":1276.9,"status":"PASS"},"geometry":{"type":"Point","coordinates":[107.41495,-6.89711]}},
{"type":"Feature","properties":{"location_id":"bandung","kabupaten":"Kabupaten Bandung","provinsi":"Jawa Barat","gadm_gid_2":"IDN.9.2_1","gadm_name_2":"Bandung","gadm_name_1":"JawaBarat","gadm_type_2":"Kabupaten","centroid_lat":-7.09994,"centroid_lon":107.61075,"centroid_inside_polygon":true,"representative_lat":-7.0632,"representative_lon":107.6335,"area_km2":1755.4,"status":"PASS"},"geometry":{"type":"Point","coordinates":[107.61075,-7.09994]}},
{"type":"Feature","properties":{"location_id":"sumedang","kabupaten":"Kabupaten Sumedang","provinsi":"Jawa Barat","gadm_gid_2":"IDN.9.25_1","gadm_name_2":"Sumedang","gadm_name_1":"JawaBarat","gadm_type_2":"Kabupaten","centroid_lat":-6.82506,"centroid_lon":107.98087,"centroid_inside_polygon":true,"representative_lat":-6.81045,"representative_lon":107.9615,"area_km2":1557.5,"status":"PASS"},"geometry":{"type":"Point","coordinates":[107.98087,-6.82506]}},
{"type":"Feature","properties":{"location_id":"magelang","kabupaten":"Kabupaten Magelang","provinsi":"Jawa Tengah","gadm_gid_2":"IDN.10.20_1","gadm_name_2":"Magelang","gadm_name_1":"JawaTengah","gadm_type_2":"Kabupaten","centroid_lat":-7.50157,"centroid_lon":110.24663,"centroid_inside_polygon":true,"representative_lat":-7.51375,"representative_lon":110.21383,"area_km2":1131.0,"status":"PASS"},"geometry":{"type":"Point","coordinates":[110.24663,-7.50157]}},
{"type":"Feature","properties":{"location_id":"brebes","kabupaten":"Kabupaten Brebes","provinsi":"Jawa Tengah","gadm_gid_2":"IDN.10.6_1","gadm_name_2":"Brebes","gadm_name_1":"JawaTengah","gadm_type_2":"Kabupaten","centroid_lat":-7.05928,"centroid_lon":108.92756,"centroid_inside_polygon":true,"representative_lat":-7.0555,"representative_lon":108.88784,"area_km2":1751.5,"status":"PASS"},"geometry":{"type":"Point","coordinates":[108.92756,-7.05928]}},
{"type":"Feature","properties":{"location_id":"cirebon","kabupaten":"Kabupaten Cirebon","provinsi":"Jawa Barat","gadm_gid_2":"IDN.9.9_1","gadm_name_2":"Cirebon","gadm_name_1":"JawaBarat","gadm_type_2":"Kabupaten","centroid_lat":-6.74541,"centroid_lon":108.55129,"centroid_inside_polygon":false,"representative_lat":-6.76145,"representative_lon":108.45635,"area_km2":1067.9,"status":"WARN"},"geometry":{"type":"Point","coordinates":[108.55129,-6.74541]}},
{"type":"Feature","properties":{"location_id":"indramayu","kabupaten":"Kabupaten Indramayu","provinsi":"Jawa Barat","gadm_gid_2":"IDN.9.12_1","gadm_name_2":"Indramayu","gadm_name_1":"JawaBarat","gadm_type_2":"Kabupaten","centroid_lat":-6.44857,"centroid_lon":108.16875,"centroid_inside_polygon":true,"representative_lat":-6.45395,"representative_lon":108.18575,"area_km2":2088.1,"status":"PASS"},"geometry":{"type":"Point","coordinates":[108.16875,-6.44857]}},
{"type":"Feature","properties":{"location_id":"karawang","kabupaten":"Kabupaten Karawang","provinsi":"Jawa Barat","gadm_gid_2":"IDN.9.13_1","gadm_name_2":"Karawang","gadm_name_1":"JawaBarat","gadm_type_2":"Kabupaten","centroid_lat":-6.25204,"centroid_lon":107.35394,"centroid_inside_polygon":true,"representative_lat":-6.26475,"representative_lon":107.42895,"area_km2":1910.9,"status":"PASS"},"geometry":{"type":"Point","coordinates":[107.35394,-6.25204]}},
{"type":"Feature","properties":{"location_id":"subang","kabupaten":"Kabupaten Subang","provinsi":"Jawa Barat","gadm_gid_2":"IDN.9.23_1","gadm_name_2":"Subang","gadm_name_1":"JawaBarat","gadm_type_2":"Kabupaten","centroid_lat":-6.48414,"centroid_lon":107.7322,"centroid_inside_polygon":true,"representative_lat":-6.5005,"representative_lon":107.73429,"area_km2":2162.1,"status":"PASS"},"geometry":{"type":"Point","coordinates":[107.7322,-6.48414]}},
{"type":"Feature","properties":{"location_id":"demak","kabupaten":"Kabupaten Demak","provinsi":"Jawa Tengah","gadm_gid_2":"IDN.10.8_1","gadm_name_2":"Demak","gadm_name_1":"JawaTengah","gadm_type_2":"Kabupaten","centroid_lat":-6.91109,"centroid_lon":110.63202,"centroid_inside_polygon":true,"representative_lat":-6.92285,"representative_lon":110.62945,"area_km2":999.7,"status":"PASS"},"geometry":{"type":"Point","coordinates":[110.63202,-6.91109]}},
{"type":"Feature","properties":{"location_id":"temanggung","kabupaten":"Kabupaten Temanggung","provinsi":"Jawa Tengah","gadm_gid_2":"IDN.10.33_1","gadm_name_2":"Temanggung","gadm_name_1":"JawaTengah","gadm_type_2":"Kabupaten","centroid_lat":-7.25788,"centroid_lon":110.13565,"centroid_inside_polygon":true,"representative_lat":-7.2381,"representative_lon":110.12067,"area_km2":873.1,"status":"PASS"},"geometry":{"type":"Point","coordinates":[110.13565,-7.25788]}},
{"type":"Feature","properties":{"location_id":"nganjuk","kabupaten":"Kabupaten Nganjuk","provinsi":"Jawa Timur","gadm_gid_2":"IDN.11.24_1","gadm_name_2":"Nganjuk","gadm_name_1":"JawaTimur","gadm_type_2":"Kabupaten","centroid_lat":-7.59737,"centroid_lon":111.9384,"centroid_inside_polygon":true,"representative_lat":-7.61565,"representative_lon":111.94642,"area_km2":1290.4,"status":"PASS"},"geometry":{"type":"Point","coordinates":[111.9384,-7.59737]}},
{"type":"Feature","properties":{"location_id":"bima","kabupaten":"Kabupaten Bima","provinsi":"Nusa Tenggara Barat","gadm_gid_2":"IDN.20.1_1","gadm_name_2":"Bima","gadm_name_1":"NusaTenggaraBarat","gadm_type_2":"Kabupaten","centroid_lat":-8.47469,"centroid_lon":118.6187,"centroid_inside_polygon":true,"representative_lat":-8.56465,"representative_lon":118.76129,"area_km2":4211.0,"status":"PASS"},"geometry":{"type":"Point","coordinates":[118.6187,-8.47469]}},
{"type":"Feature","properties":{"location_id":"sragen","kabupaten":"Kabupaten Sragen","provinsi":"Jawa Tengah","gadm_gid_2":"IDN.10.29_1","gadm_name_2":"Sragen","gadm_name_1":"JawaTengah","gadm_type_2":"Kabupaten","centroid_lat":-7.3872,"centroid_lon":110.97751,"centroid_inside_polygon":true,"representative_lat":-7.39385,"representative_lon":110.9524,"area_km2":977.9,"status":"PASS"},"geometry":{"type":"Point","coordinates":[110.97751,-7.3872]}},
{"type":"Feature","properties":{"location_id":"cilacap","kabupaten":"Kabupaten Cilacap","provinsi":"Jawa Tengah","gadm_gid_2":"IDN.10.7_1","gadm_name_2":"Cilacap","gadm_name_1":"JawaTengah","gadm_type_2":"Kabupaten","centroid_lat":-7.49089,"centroid_lon":108.89037,"centroid_inside_polygon":true,"representative_lat":-7.46065,"representative_lon":108.80423,"area_km2":2345.5,"status":"PASS"},"geometry":{"type":"Point","coordinates":[108.89037,-7.49089]}},
{"type":"Feature","properties":{"location_id":"sukoharjo","kabupaten":"Kabupaten Sukoharjo","provinsi":"Jawa Tengah","gadm_gid_2":"IDN.10.30_1","gadm_name_2":"Sukoharjo","gadm_name_1":"JawaTengah","gadm_type_2":"Kabupaten","centroid_lat":-7.6808,"centroid_lon":110.83464,"centroid_inside_polygon":true,"representative_lat":-7.68295,"representative_lon":110.86588,"area_km2":493.5,"status":"PASS"},"geometry":{"type":"Point","coordinates":[110.83464,-7.6808]}}
]
}
